[Satellite]
VERSION=1.1
NAME=SL-14 R/B
NICKNAME=SL-14 R/B
TLE1=1 16496U 86006B   18020.92447226  .00000068  00000-0  51875-5 0  9998
TLE2=2 16496  82.5260 165.3528 0020736  72.6620  31.5880 14.84062837708544
